{
  "norad_id": 65516,
  "name": "STARLINK-35216",
  "history": [
    {
      "epoch": "2026-03-28T16:10:11.279424",
      "apogee_km": 476.06793814580124,
      "perigee_km": 474.43532390611836,
      "latitude_deg": -9.224559557526433,
      "longitude_deg": 76.2791993599385,
      "semi_major_axis_km": 6853.3886310259595,
      "eccentricity": 0.00011911,
      "inclination_deg": 53.1588,
      "raan_deg": 183.0259,
      "arg_perigee_deg": 50.2464,
      "mean_anomaly_deg": 309.8641,
      "mean_motion_rev_day": 15.30187755
    }
  ]
}